{
    "links": {
        "self": "http://www.neowsapp.com/rest/v1/neo/3404364?api_key=iIulBulltgU6a56xZRHN4H3l9WmuAYTsLGpBGhQ2"
    },
    "id": "3404364",
    "neo_reference_id": "3404364",
    "name": "(2008 DH5)",
    "designation": "2008 DH5",
    "nasa_jpl_url": "http://ssd.jpl.nasa.gov/sbdb.cgi?sstr=3404364",
    "absolute_magnitude_h": 24.2,
    "estimated_diameter": {
        "kilometers": {
            "estimated_diameter_min": 0.0384197891,
            "estimated_diameter_max": 0.0859092601
        },
        "meters": {
            "estimated_diameter_min": 38.4197891064,
            "estimated_diameter_max": 85.9092601232
        },
        "miles": {
            "estimated_diameter_min": 0.0238729428,
            "estimated_diameter_max": 0.0533815229
        },
        "feet": {
            "estimated_diameter_min": 126.0491808919,
            "estimated_diameter_max": 281.8545369825
        }
    },
    "is_potentially_hazardous_asteroid": false,
    "close_approach_data": [
        {
            "close_approach_date": "2004-09-02",
            "close_approach_date_full": "2004-Sep-02 23:58",
            "epoch_date_close_approach": 1094169480000,
            "relative_velocity": {
                "kilometers_per_second": "27.5973025382",
                "kilometers_per_hour": "99350.2891376312",
                "miles_per_hour": "61732.4060477687"
            },
            "miss_distance": {
                "astronomical": "0.4323495576",
                "lunar": "168.1839779064",
                "kilometers": "64678572.912402312",
                "miles": "40189401.6004514256"
            },
            "orbiting_body": "Earth"
        },
        {
            "close_approach_date": "2008-03-05",
            "close_approach_date_full": "2008-Mar-05 07:52",
            "epoch_date_close_approach": 1204703520000,
            "relative_velocity": {
                "kilometers_per_second": "16.5835152013",
                "kilometers_per_hour": "59700.6547245266",
                "miles_per_hour": "37095.6651536927"
            },
            "miss_distance": {
                "astronomical": "0.0182168476",
                "lunar": "7.0863537164",
                "kilometers": "2725201.599074612",
                "miles": "1693361.7514371656"
            },
            "orbiting_body": "Earth"
        },
        {
            "close_approach_date": "2089-03-06",
            "close_approach_date_full": "2089-Mar-06 09:55",
            "epoch_date_close_approach": 3760941300000,
            "relative_velocity": {
                "kilometers_per_second": "16.3761095762",
                "kilometers_per_hour": "58953.9944741497",
                "miles_per_hour": "36631.719510896"
            },
            "miss_distance": {
                "astronomical": "0.0166561542",
                "lunar": "6.4792439838",
                "kilometers": "2491725.190711554",
                "miles": "1548286.2385212852"
            },
            "orbiting_body": "Earth"
        },
        {
            "close_approach_date": "2134-08-17",
            "close_approach_date_full": "2134-Aug-17 02:32",
            "epoch_date_close_approach": 5195068320000,
            "relative_velocity": {
                "kilometers_per_second": "15.7661931329",
                "kilometers_per_hour": "56758.2952784717",
                "miles_per_hour": "35267.3974190037"
            },
            "miss_distance": {
                "astronomical": "0.0962334505",
                "lunar": "37.4348122445",
                "kilometers": "14396319.217550435",
                "miles": "8945457.955388603"
            },
            "orbiting_body": "Earth"
        }
    ],
    "orbital_data": {
        "orbit_id": "9",
        "orbit_determination_date": "2017-04-06 09:04:15",
        "first_observation_date": "2008-02-28",
        "last_observation_date": "2008-03-05",
        "data_arc_in_days": 6,
        "observations_used": 44,
        "orbit_uncertainty": "8",
        "minimum_orbit_intersection": ".0118228",
        "jupiter_tisserand_invariant": "4.310",
        "epoch_osculation": "2454526.5",
        "eccentricity": ".5071973937437282",
        "semi_major_axis": "1.527567087603367",
        "inclination": "14.5105965598763",
        "ascending_node_longitude": "163.5263922778389",
        "orbital_period": "689.6025612803877",
        "perihelion_distance": ".7527890420022421",
        "perihelion_argument": "76.71126519172175",
        "aphelion_distance": "2.302345133204493",
        "perihelion_time": "2454580.015581210196",
        "mean_anomaly": "332.0627353821018",
        "mean_motion": ".5220398244049248",
        "equinox": "J2000",
        "orbit_class": {
            "orbit_class_type": "APO",
            "orbit_class_description": "Near-Earth asteroid orbits which cross the Earth’s orbit similar to that of 1862 Apollo",
            "orbit_class_range": "a (semi-major axis) > 1.0 AU; q (perihelion) < 1.017 AU"
        }
    },
    "is_sentry_object": false
}